OBJECT C                
1 57582U 23117C   24230.21106376  .00026301  00000+0  13159-2 0  9990
2 57582  97.4836 301.4739 0011809  84.7982 275.4599 15.17332864 56439
